[{"OBJECT_NAME":"STARLINK-35961","OBJECT_ID":"2025-265Q","EPOCH":"2026-03-08T23:34:58.990080","MEAN_MOTION":15.27598115,"ECCENTRICITY":0.00019365,"INCLINATION":43.004,"RA_OF_ASC_NODE":282.0756,"ARG_OF_PERICENTER":268.8997,"MEAN_ANOMALY":91.1633,"EPHEMERIS_TYPE":0,"CLASSIFICATION_TYPE":"U","NORAD_CAT_ID":66530,"ELEMENT_SET_NO":999,"REV_AT_EPOCH":1700,"BSTAR":0.0013363732,"MEAN_MOTION_DOT":0.00036716,"MEAN_MOTION_DDOT":0},{"OBJECT_NAME":"PUCP-SAT 1","OBJECT_ID":"2013-066AC","EPOCH":"2026-03-09T22:02:13.763904","MEAN_MOTION":15.29426022,"ECCENTRICITY":0.00136836,"INCLINATION":97.5787,"RA_OF_ASC_NODE":61.0032,"ARG_OF_PERICENTER":300.1183,"MEAN_ANOMALY":59.87,"EPHEMERIS_TYPE":0,"CLASSIFICATION_TYPE":"U","NORAD_CAT_ID":39442,"ELEMENT_SET_NO":999,"REV_AT_EPOCH":66907,"BSTAR":0.00088755185,"MEAN_MOTION_DOT":0.00025373,"MEAN_MOTION_DDOT":0}]
